HST                     
1 20580U 90037B   26166.12212988  .00005845  00000+0  18362-3 0  9992
2 20580  28.4718  94.6872 0001877 120.6716 239.4066 15.30726834788258
POLAR                   
1 23802U 96013A   26166.49652468  .00000145  00000+0  00000+0 0  9997
2 23802  79.8518 227.0721 6468777 209.1373  89.7305  1.29846141144834
SWAS                    
1 25560U 98071A   26166.49170340  .00002808  00000+0  18065-3 0  9992
2 25560  69.8953 231.8917 0008684 261.6411  98.3769 15.09618402497017
CXO                     
1 25867U 99040B   26169.37713323  .00000529  00000+0  00000+0 0  9997
2 25867  56.2189 116.5542 7835469 310.3049   0.1821  0.37804062 17322
XMM-NEWTON              
1 25989U 99066A   26167.35230823  .00000036  00000+0  00000+0 0  9998
2 25989  64.4922 282.9960 4674559  64.9442   0.1261  0.50126459 23004
TERRA                   
1 25994U 99068A   26166.51950580  .00000322  00000+0  74567-4 0  9994
2 25994  97.9457 216.1319 0001449 195.5293 270.7841 14.61101880409368
CLUSTER II-FM7 (SAMBA)  
1 26410U 00041A   26168.13893488  .00013373  00000+0  00000+0 0  9990
2 26410 149.9159  50.9864 9054007 268.1291 359.6411  0.44868040 20307
CLUSTER II-FM8 (TANGO)  
1 26464U 00045B   26166.18659910  .00011716  00000+0  00000+0 0  9995
2 26464 150.1452  51.6789 9056528 268.6418   2.8164  0.44420492 20303
ODIN                    
1 26702U 01007A   26166.37956394  .00152420  00000+0  10010-2 0  9999
2 26702  97.3827 207.2059 0006850 145.0151 215.1565 15.75246975389114
TIMED                   
1 26998U 01055B   26166.53626468  .00000961  00000+0  90802-4 0  9994
2 26998  74.0675 238.3425 0001028 338.5648  21.5493 14.95291972330571
CORIOLIS                
1 27640U 03001A   26166.50601944  .00000079  00000+0  57567-4 0  9992
2 27640  98.7125 173.4164 0013277 213.8978 146.1351 14.19944407213984
SORCE                   
1 27651U 03004A   26166.01430323  .00002604  00000+0  19706-3 0  9992
2 27651  39.9911 274.0755 0016736  32.6972 327.4855 15.03703956271572
MOST                    
1 27843U 03031D   26166.52176317  .00000046  00000+0  41362-4 0  9993
2 27843  98.7045 174.2710 0008709 255.8574 104.1636 14.21322169190474
SCISAT 1                
1 27858U 03036A   26166.46986429  .00000406  00000+0  56554-4 0  9999
2 27858  73.9285 174.7550 0008590 244.4926 115.5362 14.81446007231192
SWIFT                   
1 28485U 04047A   26166.40597521  .00042527  00000+0  35480-3 0  9998
2 28485  20.5516 198.6409 0001619 255.9834 104.0432 15.68175033186589
HINODE (SOLAR-B)        
1 29479U 06041A   26166.48207465  .00000582  00000+0  10842-3 0  9991
2 29479  98.0549 182.6598 0016060 295.6413  64.3133 14.68621018 54624
SHIJIAN-6 02A (SJ-6 02A)
1 29505U 06046A   26166.50844625  .00007123  00000+0  36452-3 0  9997
2 29505  97.6365 207.5621 0004340 128.4804 231.6819 15.16930796 72017
SHIJIAN-6 02B (SJ-6 02B)
1 29506U 06046B   26166.54686325  .00001649  00000+0  13233-3 0  9992
2 29506  97.7158 195.6157 0015309  65.0489 295.2324 15.01375412 70491
FGRST (GLAST)           
1 33053U 08029A   26166.46066587  .00002453  00000+0  85060-4 0  9992
2 33053  25.5807 216.4719 0007638 308.0959  51.8890 15.23940414995570
SDO                     
1 36395U 10005A   26165.43714222 -.00000094  00000+0  00000+0 0  9999
2 36395  34.6460  86.3840 0001714  49.5303 182.1298  1.00269990 60033
CRYOSAT 2               
1 36508U 10013A   26166.49634343  .00000178  00000+0  43379-4 0  9999
2 36508  92.0354 276.8905 0002160  88.9627 271.1827 14.51898585857836
X-SAT                   
1 37389U 11015C   26166.47039170  .00000299  00000+0  14480-3 0  9999
2 37389  98.3501 143.5753 0014066 353.6328   6.4672 14.25206726787432
GCOM-W1 (SHIZUKU)       
1 38337U 12025A   26166.46388221  .00000379  00000+0  94033-4 0  9990
2 38337  98.2021 107.0456 0001813  76.4042  39.7184 14.57123136748786
NUSTAR                  
1 38358U 12031A   26166.58335647  .00004384  00000+0  21790-3 0  9996
2 38358   6.0277  46.1671 0006630  81.2506 271.8897 15.08791780  1305
NEOSSAT                 
1 39089U 13009D   26166.46735170  .00000118  00000+0  55441-4 0  9998
2 39089  98.4176 346.5409 0009853 249.5350 110.4779 14.35825849696492
BRITE-AUSTRIA           
1 39091U 13009F   26166.46683411  .00000139  00000+0  61898-4 0  9997
2 39091  98.3993 345.9451 0009085 242.3065 117.7200 14.36541469696800
IRIS                    
1 39197U 13033A   26166.54869671  .00000874  00000+0  10627-3 0  9993
2 39197  97.9330   5.8309 0023670 327.3812  32.5940 14.85882483700136
HISAKI (SPRINT-A)       
1 39253U 13049A   26166.50847527  .00000131  00000+0  92305-4 0  9995
2 39253  29.7185 228.5480 0136856   3.2464 356.8973 13.55544623631192
CASSIOPE                
1 39265U 13055A   26166.45623887  .00044930 -50627-6  49155-3 0  9997
2 39265  80.9157  68.8241 0293250  68.2494 294.9674 15.25041985667404
STSAT-3                 
1 39422U 13066G   26166.51471389  .00002583  00000+0  19754-3 0  9991
2 39422  97.6216 136.4298 0011171  49.3925 310.8270 15.02748271683958
SWARM B                 
1 39451U 13067A   26166.49716566  .00003002  00000+0  10690-3 0  9997
2 39451  87.7434 342.8303 0003323  86.3908 273.7722 15.28542198682983
